[{"OBJECT_NAME":"STARLINK-3450","OBJECT_ID":"2022-016W","EPOCH":"2026-03-09T22:00:36.922464","MEAN_MOTION":15.08842875,"ECCENTRICITY":0.00015667,"INCLINATION":53.2194,"RA_OF_ASC_NODE":318.099,"ARG_OF_PERICENTER":102.9267,"MEAN_ANOMALY":257.19,"EPHEMERIS_TYPE":0,"CLASSIFICATION_TYPE":"U","NORAD_CAT_ID":51734,"ELEMENT_SET_NO":999,"REV_AT_EPOCH":22359,"BSTAR":-3.4221182e-5,"MEAN_MOTION_DOT":-8.33e-6,"MEAN_MOTION_DDOT":0},{"OBJECT_NAME":"COSMOS 2251 DEB","OBJECT_ID":"1993-036AUM","EPOCH":"2026-03-08T12:34:22.155456","MEAN_MOTION":14.96324912,"ECCENTRICITY":0.00809203,"INCLINATION":73.9894,"RA_OF_ASC_NODE":123.8265,"ARG_OF_PERICENTER":247.0296,"MEAN_ANOMALY":179.8153,"EPHEMERIS_TYPE":0,"CLASSIFICATION_TYPE":"U","NORAD_CAT_ID":35898,"ELEMENT_SET_NO":999,"REV_AT_EPOCH":68092,"BSTAR":0.00097608609,"MEAN_MOTION_DOT":0.00011776,"MEAN_MOTION_DDOT":0}]
